{
  "type": "FeatureCollection",
  "features": [
    {
      "type": "Feature",
      "properties": {
        "norad_id": 37094,
        "name": "COSMOS 2251 DEB",
        "group": "cosmos-2251-debris",
        "lat": 7.416241449582116,
        "lon": -63.70703918850648,
        "alt_km": 764.843378515413,
        "timestamp": "2025-12-14T05:42:18.860388+00:00",
        "meta_object_name": "COSMOS 2251 DEB",
        "meta_object_id": "1993-036BFQ",
        "meta_epoch": "2025-12-10T15:45:11.030688",
        "meta_mean_motion": 14.37808892,
        "meta_eccentricity": 0.0084108,
        "meta_inclination": 74.1091,
        "meta_ra_of_asc_node": 124.9809,
        "meta_arg_of_pericenter": 91.4784,
        "meta_mean_anomaly": 269.6007,
        "meta_ephemeris_type": 0,
        "meta_classification_type": "U",
        "meta_norad_cat_id": 37094,
        "meta_element_set_no": 999,
        "meta_rev_at_epoch": 84476,
        "meta_bstar": 0.0015212,
        "meta_mean_motion_dot": 4.753e-05,
        "meta_mean_motion_ddot": 0,
        "tle_line1": "1 37094U 93036BFQ 25344.65637767  .00004753  00000+0  15212-2 0  9990",
        "tle_line2": "2 37094  74.1091 124.9809 0084108  91.4784 269.6007 14.37808892844763"
      },
      "geometry": {
        "type": "Point",
        "coordinates": [
          -63.70703918850648,
          7.416241449582116
        ]
      }
    },
    {
      "type": "Feature",
      "properties": {
        "norad_id": 37095,
        "name": "COSMOS 2251 DEB",
        "group": "cosmos-2251-debris",
        "lat": -72.87764215679968,
        "lon": 117.10367813985309,
        "alt_km": 767.043371054704,
        "timestamp": "2025-12-14T05:42:18.860398+00:00",
        "meta_object_name": "COSMOS 2251 DEB",
        "meta_object_id": "1993-036BFR",
        "meta_epoch": "2025-12-09T20:01:56.039232",
        "meta_mean_motion": 14.03378058,
        "meta_eccentricity": 0.01946745,
        "meta_inclination": 73.8479,
        "meta_ra_of_asc_node": 195.0272,
        "meta_arg_of_pericenter": 253.3329,
        "meta_mean_anomaly": 104.6357,
        "meta_ephemeris_type": 0,
        "meta_classification_type": "U",
        "meta_norad_cat_id": 37095,
        "meta_element_set_no": 999,
        "meta_rev_at_epoch": 62595,
        "meta_bstar": 0.002528344,
        "meta_mean_motion_dot": 4.65e-05,
        "meta_mean_motion_ddot": 0,
        "tle_line1": "1 37095U 93036BFR 25343.83467638  .00004650  00000+0  25283-2 0  9993",
        "tle_line2": "2 37095  73.8479 195.0272 0194674 253.3329 104.6357 14.03378058625950"
      },
      "geometry": {
        "type": "Point",
        "coordinates": [
          117.10367813985309,
          -72.87764215679968
        ]
      }
    },
    {
      "type": "Feature",
      "properties": {
        "norad_id": 37108,
        "name": "COSMOS 2251 DEB",
        "group": "cosmos-2251-debris",
        "lat": 17.485830892938264,
        "lon": -107.38006867008959,
        "alt_km": 689.6291678694097,
        "timestamp": "2025-12-14T05:42:18.860409+00:00",
        "meta_object_name": "COSMOS 2251 DEB",
        "meta_object_id": "1993-036BGE",
        "meta_epoch": "2025-12-12T06:19:01.114176",
        "meta_mean_motion": 14.41295875,
        "meta_eccentricity": 0.00913497,
        "meta_inclination": 74.0444,
        "meta_ra_of_asc_node": 81.4442,
        "meta_arg_of_pericenter": 158.2355,
        "meta_mean_anomaly": 202.2722,
        "meta_ephemeris_type": 0,
        "meta_classification_type": "U",
        "meta_norad_cat_id": 37108,
        "meta_element_set_no": 999,
        "meta_rev_at_epoch": 85500,
        "meta_bstar": 0.0021858638,
        "meta_mean_motion_dot": 7.41e-05,
        "meta_mean_motion_ddot": 0,
        "tle_line1": "1 37108U 93036BGE 25346.26320734  .00007410  00000+0  21859-2 0  9995",
        "tle_line2": "2 37108  74.0444  81.4442 0091349 158.2355 202.2722 14.41295875855003"
      },
      "geometry": {
        "type": "Point",
        "coordinates": [
          -107.38006867008959,
          17.485830892938264
        ]
      }
    },
    {
      "type": "Feature",
      "properties": {
        "norad_id": 37126,
        "name": "COSMOS 2251 DEB",
        "group": "cosmos-2251-debris",
        "lat": -48.82915981701987,
        "lon": -169.1849072642411,
        "alt_km": 571.1445763668689,
        "timestamp": "2025-12-14T05:42:18.860419+00:00",
        "meta_object_name": "COSMOS 2251 DEB",
        "meta_object_id": "1993-036BGY",
        "meta_epoch": "2025-12-10T07:44:48.551424",
        "meta_mean_motion": 14.73059683,
        "meta_eccentricity": 0.0123308,
        "meta_inclination": 73.9536,
        "meta_ra_of_asc_node": 359.2652,
        "meta_arg_of_pericenter": 237.9672,
        "meta_mean_anomaly": 120.9475,
        "meta_ephemeris_type": 0,
        "meta_classification_type": "U",
        "meta_norad_cat_id": 37126,
        "meta_element_set_no": 999,
        "meta_rev_at_epoch": 8063,
        "meta_bstar": 0.00038210319,
        "meta_mean_motion_dot": 2.735e-05,
        "meta_mean_motion_ddot": 0,
        "tle_line1": "1 37126U 93036BGY 25344.32278416  .00002735  00000+0  38210-3 0  9994",
        "tle_line2": "2 37126  73.9536 359.2652 0123308 237.9672 120.9475 14.73059683 80630"
      },
      "geometry": {
        "type": "Point",
        "coordinates": [
          -169.1849072642411,
          -48.82915981701987
        ]
      }
    },
    {
      "type": "Feature",
      "properties": {
        "norad_id": 37132,
        "name": "COSMOS 2251 DEB",
        "group": "cosmos-2251-debris",
        "lat": -47.43036945003115,
        "lon": -147.10531210585103,
        "alt_km": 635.9795681637906,
        "timestamp": "2025-12-14T05:42:18.860429+00:00",
        "meta_object_name": "COSMOS 2251 DEB",
        "meta_object_id": "1993-036BHE",
        "meta_epoch": "2025-12-13T08:48:34.863552",
        "meta_mean_motion": 14.77850138,
        "meta_eccentricity": 0.00399242,
        "meta_inclination": 74.002,
        "meta_ra_of_asc_node": 232.8066,
        "meta_arg_of_pericenter": 28.724,
        "meta_mean_anomaly": 331.6121,
        "meta_ephemeris_type": 0,
        "meta_classification_type": "U",
        "meta_norad_cat_id": 37132,
        "meta_element_set_no": 999,
        "meta_rev_at_epoch": 62425,
        "meta_bstar": 0.0017766923,
        "meta_mean_motion_dot": 0.00012937,
        "meta_mean_motion_ddot": 0,
        "tle_line1": "1 37132U 93036BHE 25347.36707018  .00012937  00000+0  17767-2 0  9991",
        "tle_line2": "2 37132  74.0020 232.8066 0039924  28.7240 331.6121 14.77850138624258"
      },
      "geometry": {
        "type": "Point",
        "coordinates": [
          -147.10531210585103,
          -47.43036945003115
        ]
      }
    },
    {
      "type": "Feature",
      "properties": {
        "norad_id": 37270,
        "name": "COSMOS 2251 DEB",
        "group": "cosmos-2251-debris",
        "lat": -8.36076682954339,
        "lon": 155.8713665464078,
        "alt_km": 1308.788796410794,
        "timestamp": "2025-12-14T05:42:18.860439+00:00",
        "meta_object_name": "COSMOS 2251 DEB",
        "meta_object_id": "1993-036BHJ",
        "meta_epoch": "2025-12-12T22:45:06.098400",
        "meta_mean_motion": 13.59808663,
        "meta_eccentricity": 0.03985351,
        "meta_inclination": 73.9378,
        "meta_ra_of_asc_node": 335.5481,
        "meta_arg_of_pericenter": 347.3958,
        "meta_mean_anomaly": 11.7404,
        "meta_ephemeris_type": 0,
        "meta_classification_type": "U",
        "meta_norad_cat_id": 37270,
        "meta_element_set_no": 999,
        "meta_rev_at_epoch": 77072,
        "meta_bstar": 0.0064936549,
        "meta_mean_motion_dot": 8.148e-05,
        "meta_mean_motion_ddot": 0,
        "tle_line1": "1 37270U 93036BHJ 25346.94798725  .00008148  00000+0  64937-2 0  9992",
        "tle_line2": "2 37270  73.9378 335.5481 0398535 347.3958  11.7404 13.59808663770728"
      },
      "geometry": {
        "type": "Point",
        "coordinates": [
          155.8713665464078,
          -8.36076682954339
        ]
      }
    },
    {
      "type": "Feature",
      "properties": {
        "norad_id": 37278,
        "name": "COSMOS 2251 DEB",
        "group": "cosmos-2251-debris",
        "lat": 26.31252066615603,
        "lon": 158.33128495268573,
        "alt_km": 632.3430147767303,
        "timestamp": "2025-12-14T05:42:18.860449+00:00",
        "meta_object_name": "COSMOS 2251 DEB",
        "meta_object_id": "1993-036BHS",
        "meta_epoch": "2025-12-04T09:26:36.152736",
        "meta_mean_motion": 14.15029915,
        "meta_eccentricity": 0.029998,
        "meta_inclination": 73.7864,
        "meta_ra_of_asc_node": 4.3592,
        "meta_arg_of_pericenter": 188.2556,
        "meta_mean_anomaly": 234.4903,
        "meta_ephemeris_type": 0,
        "meta_classification_type": "U",
        "meta_norad_cat_id": 37278,
        "meta_element_set_no": 999,
        "meta_rev_at_epoch": 63711,
        "meta_bstar": 0.0023061,
        "meta_mean_motion_dot": 6.884e-05,
        "meta_mean_motion_ddot": 0,
        "tle_line1": "1 37278U 93036BHS 25338.39347399  .00006884  00000+0  23061-2 0  9995",
        "tle_line2": "2 37278  73.7864   4.3592 0299980 188.2556 234.4903 14.15029915637119"
      },
      "geometry": {
        "type": "Point",
        "coordinates": [
          158.33128495268573,
          26.31252066615603
        ]
      }
    }
  ]
}